CCSDS_OMM_VERS = 2.0
CREATION_DATE  = 
ORIGINATOR     = 

OBJECT_NAME    = STARLINK-36612
OBJECT_ID      = 2026-016V
CENTER_NAME    = EARTH
REF_FRAME      = TEME
TIME_SYSTEM    = UTC
MEAN_ELEMENT_THEORY = SGP/SGP4

EPOCH          = 2026-02-19T21:10:52.472928
MEAN_MOTION    = 15.80934206
ECCENTRICITY   = .00015722
INCLINATION    = 97.2829
RA_OF_ASC_NODE = 110.5420
ARG_OF_PERICENTER = 120.5363
MEAN_ANOMALY   = 239.6061

EPHEMERIS_TYPE = 0
CLASSIFICATION_TYPE = U
NORAD_CAT_ID   = 67580
ELEMENT_SET_NO = 999
REV_AT_EPOCH   = 400
BSTAR          = .16628967E-2
MEAN_MOTION_DOT = .33262E-2
MEAN_MOTION_DDOT = 0

CCSDS_OMM_VERS = 2.0
CREATION_DATE  = 
ORIGINATOR     = 

OBJECT_NAME    = STARLINK-36632
OBJECT_ID      = 2026-016W
CENTER_NAME    = EARTH
REF_FRAME      = TEME
TIME_SYSTEM    = UTC
MEAN_ELEMENT_THEORY = SGP/SGP4

EPOCH          = 2026-02-19T15:34:21.512640
MEAN_MOTION    = 15.75228137
ECCENTRICITY   = .00029787
INCLINATION    = 97.2839
RA_OF_ASC_NODE = 110.2488
ARG_OF_PERICENTER = 43.1889
MEAN_ANOMALY   = 316.9609

EPHEMERIS_TYPE = 0
CLASSIFICATION_TYPE = U
NORAD_CAT_ID   = 67581
ELEMENT_SET_NO = 999
REV_AT_EPOCH   = 396
BSTAR          = .15340097E-2
MEAN_MOTION_DOT = .235509E-2
MEAN_MOTION_DDOT = 0

CCSDS_OMM_VERS = 2.0
CREATION_DATE  = 
ORIGINATOR     = 

OBJECT_NAME    = STARLINK-36609
OBJECT_ID      = 2026-016X
CENTER_NAME    = EARTH
REF_FRAME      = TEME
TIME_SYSTEM    = UTC
MEAN_ELEMENT_THEORY = SGP/SGP4

EPOCH          = 2026-02-19T17:28:41.581920
MEAN_MOTION    = 15.75222248
ECCENTRICITY   = .00009654
INCLINATION    = 97.2839
RA_OF_ASC_NODE = 110.2926
ARG_OF_PERICENTER = 136.8573
MEAN_ANOMALY   = 223.2768

EPHEMERIS_TYPE = 0
CLASSIFICATION_TYPE = U
NORAD_CAT_ID   = 67582
ELEMENT_SET_NO = 999
REV_AT_EPOCH   = 397
BSTAR          = .1960864E-2
MEAN_MOTION_DOT = .303409E-2
MEAN_MOTION_DDOT = 0

CCSDS_OMM_VERS = 2.0
CREATION_DATE  = 
ORIGINATOR     = 

OBJECT_NAME    = STARLINK-36577
OBJECT_ID      = 2026-016Y
CENTER_NAME    = EARTH
REF_FRAME      = TEME
TIME_SYSTEM    = UTC
MEAN_ELEMENT_THEORY = SGP/SGP4

EPOCH          = 2026-02-19T18:06:26.814528
MEAN_MOTION    = 15.80867169
ECCENTRICITY   = .00019181
INCLINATION    = 97.2830
RA_OF_ASC_NODE = 110.4098
ARG_OF_PERICENTER = 134.2802
MEAN_ANOMALY   = 225.8624

EPHEMERIS_TYPE = 0
CLASSIFICATION_TYPE = U
NORAD_CAT_ID   = 67583
ELEMENT_SET_NO = 999
REV_AT_EPOCH   = 398
BSTAR          = .19706919E-2
MEAN_MOTION_DOT = .395908E-2
MEAN_MOTION_DDOT = 0

CCSDS_OMM_VERS = 2.0
CREATION_DATE  = 
ORIGINATOR     = 

OBJECT_NAME    = STARLINK-36419
OBJECT_ID      = 2026-016Z
CENTER_NAME    = EARTH
REF_FRAME      = TEME
TIME_SYSTEM    = UTC
MEAN_ELEMENT_THEORY = SGP/SGP4

EPOCH          = 2026-02-19T22:00:03.000096
MEAN_MOTION    = 15.75205420
ECCENTRICITY   = .00010682
INCLINATION    = 97.2848
RA_OF_ASC_NODE = 110.5703
ARG_OF_PERICENTER = 75.8903
MEAN_ANOMALY   = 92.0955

EPHEMERIS_TYPE = 0
CLASSIFICATION_TYPE = U
NORAD_CAT_ID   = 67584
ELEMENT_SET_NO = 999
REV_AT_EPOCH   = 519
BSTAR          = -.50244148E-3
MEAN_MOTION_DOT = -.7447E-3
MEAN_MOTION_DDOT = 0

CCSDS_OMM_VERS = 2.0
CREATION_DATE  = 
ORIGINATOR     = 

OBJECT_NAME    = STARLINK-36560
OBJECT_ID      = 2026-016AA
CENTER_NAME    = EARTH
REF_FRAME      = TEME
TIME_SYSTEM    = UTC
MEAN_ELEMENT_THEORY = SGP/SGP4

EPOCH          = 2026-02-19T17:58:12.728352
MEAN_MOTION    = 15.80863334
ECCENTRICITY   = .00018579
INCLINATION    = 97.2825
RA_OF_ASC_NODE = 110.4188
ARG_OF_PERICENTER = 155.5025
MEAN_ANOMALY   = 204.6332

EPHEMERIS_TYPE = 0
CLASSIFICATION_TYPE = U
NORAD_CAT_ID   = 67585
ELEMENT_SET_NO = 999
REV_AT_EPOCH   = 398
BSTAR          = .20884061E-2
MEAN_MOTION_DOT = .420703E-2
MEAN_MOTION_DDOT = 0

CCSDS_OMM_VERS = 2.0
CREATION_DATE  = 
ORIGINATOR     = 

OBJECT_NAME    = NAVSTAR 85 (USA 581)
OBJECT_ID      = 2026-017A
CENTER_NAME    = EARTH
REF_FRAME      = TEME
TIME_SYSTEM    = UTC
MEAN_ELEMENT_THEORY = SGP/SGP4

EPOCH          = 2026-02-17T12:56:41.465184
MEAN_MOTION    = 2.00561228
ECCENTRICITY   = .0000946
INCLINATION    = 55.0081
RA_OF_ASC_NODE = 93.5564
ARG_OF_PERICENTER = 45.2724
MEAN_ANOMALY   = 314.8210

EPHEMERIS_TYPE = 0
CLASSIFICATION_TYPE = U
NORAD_CAT_ID   = 67588
ELEMENT_SET_NO = 999
REV_AT_EPOCH   = 42921
BSTAR          = 0
MEAN_MOTION_DOT = .28E-6
MEAN_MOTION_DDOT = 0

CCSDS_OMM_VERS = 2.0
CREATION_DATE  = 
ORIGINATOR     = 

OBJECT_NAME    = STARLINK-36641
OBJECT_ID      = 2026-018A
CENTER_NAME    = EARTH
REF_FRAME      = TEME
TIME_SYSTEM    = UTC
MEAN_ELEMENT_THEORY = SGP/SGP4

EPOCH          = 2026-02-20T03:36:40.081824
MEAN_MOTION    = 15.75205542
ECCENTRICITY   = .000076
INCLINATION    = 97.2833
RA_OF_ASC_NODE = 116.0449
ARG_OF_PERICENTER = 58.6771
MEAN_ANOMALY   = 301.4569

EPHEMERIS_TYPE = 0
CLASSIFICATION_TYPE = U
NORAD_CAT_ID   = 67589
ELEMENT_SET_NO = 999
REV_AT_EPOCH   = 454
BSTAR          = .40798E-3
MEAN_MOTION_DOT = .612E-3
MEAN_MOTION_DDOT = 0

CCSDS_OMM_VERS = 2.0
CREATION_DATE  = 
ORIGINATOR     = 

OBJECT_NAME    = STARLINK-36376
OBJECT_ID      = 2026-018B
CENTER_NAME    = EARTH
REF_FRAME      = TEME
TIME_SYSTEM    = UTC
MEAN_ELEMENT_THEORY = SGP/SGP4

EPOCH          = 2026-02-20T04:00:03.000096
MEAN_MOTION    = 15.75186559
ECCENTRICITY   = .0001406
INCLINATION    = 97.2838
RA_OF_ASC_NODE = 116.1067
ARG_OF_PERICENTER = 86.6232
MEAN_ANOMALY   = 107.5475

EPHEMERIS_TYPE = 0
CLASSIFICATION_TYPE = U
NORAD_CAT_ID   = 67590
ELEMENT_SET_NO = 999
REV_AT_EPOCH   = 457
BSTAR          = -.41967E-3
MEAN_MOTION_DOT = -.62263E-3
MEAN_MOTION_DDOT = 0

CCSDS_OMM_VERS = 2.0
CREATION_DATE  = 
ORIGINATOR     = 

OBJECT_NAME    = STARLINK-36391
OBJECT_ID      = 2026-018C
CENTER_NAME    = EARTH
REF_FRAME      = TEME
TIME_SYSTEM    = UTC
MEAN_ELEMENT_THEORY = SGP/SGP4

EPOCH          = 2026-02-20T02:57:24.490368
MEAN_MOTION    = 15.80922744
ECCENTRICITY   = .00015
INCLINATION    = 97.2831
RA_OF_ASC_NODE = 116.0820
ARG_OF_PERICENTER = 124.8793
MEAN_ANOMALY   = 235.2616

EPHEMERIS_TYPE = 0
CLASSIFICATION_TYPE = U
NORAD_CAT_ID   = 67591
ELEMENT_SET_NO = 999
REV_AT_EPOCH   = 454
BSTAR          = .87637E-3
MEAN_MOTION_DOT = .17191E-2
MEAN_MOTION_DDOT = 0

CCSDS_OMM_VERS = 2.0
CREATION_DATE  = 
ORIGINATOR     = 

OBJECT_NAME    = STARLINK-36603
OBJECT_ID      = 2026-018D
CENTER_NAME    = EARTH
REF_FRAME      = TEME
TIME_SYSTEM    = UTC
MEAN_ELEMENT_THEORY = SGP/SGP4

EPOCH          = 2026-02-20T04:00:03.000096
MEAN_MOTION    = 15.75188759
ECCENTRICITY   = .000134
INCLINATION    = 97.2837
RA_OF_ASC_NODE = 116.1176
ARG_OF_PERICENTER = 87.8357
MEAN_ANOMALY   = 130.3019

EPHEMERIS_TYPE = 0
CLASSIFICATION_TYPE = U
NORAD_CAT_ID   = 67592
ELEMENT_SET_NO = 999
REV_AT_EPOCH   = 453
BSTAR          = -.65799E-4
MEAN_MOTION_DOT = -.9932E-4
MEAN_MOTION_DDOT = 0

CCSDS_OMM_VERS = 2.0
CREATION_DATE  = 
ORIGINATOR     = 

OBJECT_NAME    = STARLINK-36634
OBJECT_ID      = 2026-018E
CENTER_NAME    = EARTH
REF_FRAME      = TEME
TIME_SYSTEM    = UTC
MEAN_ELEMENT_THEORY = SGP/SGP4

EPOCH          = 2026-02-20T02:55:01.735968
MEAN_MOTION    = 15.79624226
ECCENTRICITY   = .0002316
INCLINATION    = 97.2833
RA_OF_ASC_NODE = 116.0843
ARG_OF_PERICENTER = 147.9173
MEAN_ANOMALY   = 212.2236

EPHEMERIS_TYPE = 0
CLASSIFICATION_TYPE = U
NORAD_CAT_ID   = 67593
ELEMENT_SET_NO = 999
REV_AT_EPOCH   = 454
BSTAR          = -.32647E-2
MEAN_MOTION_DOT = -.556328E-2
MEAN_MOTION_DDOT = 0

